{
  "type": "FeatureCollection",
  "features": [
    {
      "type": "Feature",
      "properties": {
        "norad_id": 41330,
        "name": "COSMOS 2514 (751)",
        "group": "gnss",
        "lat": -0.7823464122090333,
        "lon": -40.92955096843206,
        "alt_km": 19153.942004310175,
        "timestamp": "2025-12-11T13:55:02.407421+00:00",
        "meta_object_name": "COSMOS 2514 (751)",
        "meta_object_id": "2016-008A",
        "meta_epoch": "2025-12-10T04:09:27.230112",
        "meta_mean_motion": 2.13102584,
        "meta_eccentricity": 0.00121793,
        "meta_inclination": 65.1353,
        "meta_ra_of_asc_node": 319.4918,
        "meta_arg_of_pericenter": 220.0546,
        "meta_mean_anomaly": 139.8533,
        "meta_ephemeris_type": 0,
        "meta_classification_type": "U",
        "meta_norad_cat_id": 41330,
        "meta_element_set_no": 999,
        "meta_rev_at_epoch": 7659,
        "meta_bstar": 0,
        "meta_mean_motion_dot": -5e-07,
        "meta_mean_motion_ddot": 0,
        "tle_line1": "1 41330U 16008A   25344.17323183 -.00000050  00000+0  00000+0 0  9996",
        "tle_line2": "2 41330  65.1353 319.4918 0012179 220.0546 139.8533  2.13102584 76595"
      },
      "geometry": {
        "type": "Point",
        "coordinates": [
          -40.92955096843206,
          -0.7823464122090333
        ]
      }
    },
    {
      "type": "Feature",
      "properties": {
        "norad_id": 41384,
        "name": "IRNSS-1F",
        "group": "gnss",
        "lat": -3.17454760284213,
        "lon": -38.27416426550985,
        "alt_km": 35713.60581792749,
        "timestamp": "2025-12-11T13:55:02.407433+00:00",
        "meta_object_name": "IRNSS-1F",
        "meta_object_id": "2016-015A",
        "meta_epoch": "2025-12-11T01:40:43.826880",
        "meta_mean_motion": 1.00271635,
        "meta_eccentricity": 0.0022527,
        "meta_inclination": 4.8764,
        "meta_ra_of_asc_node": 101.3417,
        "meta_arg_of_pericenter": 180.472,
        "meta_mean_anomaly": 215.7645,
        "meta_ephemeris_type": 0,
        "meta_classification_type": "U",
        "meta_norad_cat_id": 41384,
        "meta_element_set_no": 999,
        "meta_rev_at_epoch": 3578,
        "meta_bstar": 0,
        "meta_mean_motion_dot": 1.64e-06,
        "meta_mean_motion_ddot": 0,
        "tle_line1": "1 41384U 16015A   25345.06995170  .00000164  00000+0  00000+0 0  9998",
        "tle_line2": "2 41384   4.8764 101.3417 0022527 180.4720 215.7645  1.00271635 35786"
      },
      "geometry": {
        "type": "Point",
        "coordinates": [
          -38.27416426550985,
          -3.17454760284213
        ]
      }
    },
    {
      "type": "Feature",
      "properties": {
        "norad_id": 41434,
        "name": "BEIDOU-2 IGSO-6 (C13)",
        "group": "gnss",
        "lat": -14.79793193194,
        "lon": 31.16070344863465,
        "alt_km": 35885.33763655618,
        "timestamp": "2025-12-11T13:55:02.407447+00:00",
        "meta_object_name": "BEIDOU-2 IGSO-6 (C13)",
        "meta_object_id": "2016-021A",
        "meta_epoch": "2025-12-03T15:53:57.382080",
        "meta_mean_motion": 1.00293531,
        "meta_eccentricity": 0.00596341,
        "meta_inclination": 59.9536,
        "meta_ra_of_asc_node": 39.991,
        "meta_arg_of_pericenter": 228.541,
        "meta_mean_anomaly": 135.1173,
        "meta_ephemeris_type": 0,
        "meta_classification_type": "U",
        "meta_norad_cat_id": 41434,
        "meta_element_set_no": 999,
        "meta_rev_at_epoch": 3552,
        "meta_bstar": 0,
        "meta_mean_motion_dot": -1.61e-06,
        "meta_mean_motion_ddot": 0,
        "tle_line1": "1 41434U 16021A   25337.66246970 -.00000161  00000+0  00000+0 0  9993",
        "tle_line2": "2 41434  59.9536  39.9910 0059634 228.5410 135.1173  1.00293531 35525"
      },
      "geometry": {
        "type": "Point",
        "coordinates": [
          31.16070344863465,
          -14.79793193194
        ]
      }
    },
    {
      "type": "Feature",
      "properties": {
        "norad_id": 41469,
        "name": "IRNSS-1G",
        "group": "gnss",
        "lat": -3.2515729857043936,
        "lon": 58.45375573503083,
        "alt_km": 35774.117332928276,
        "timestamp": "2025-12-11T13:55:02.407460+00:00",
        "meta_object_name": "IRNSS-1G",
        "meta_object_id": "2016-027A",
        "meta_epoch": "2025-12-10T07:18:31.930272",
        "meta_mean_motion": 1.00250551,
        "meta_eccentricity": 0.00046359,
        "meta_inclination": 4.7271,
        "meta_ra_of_asc_node": 102.1628,
        "meta_arg_of_pericenter": 335.3904,
        "meta_mean_anomaly": 240.5348,
        "meta_ephemeris_type": 0,
        "meta_classification_type": "U",
        "meta_norad_cat_id": 41469,
        "meta_element_set_no": 999,
        "meta_rev_at_epoch": 3528,
        "meta_bstar": 0,
        "meta_mean_motion_dot": -3.34e-06,
        "meta_mean_motion_ddot": 0,
        "tle_line1": "1 41469U 16027A   25344.30453623 -.00000334  00000+0  00000+0 0  9993",
        "tle_line2": "2 41469   4.7271 102.1628 0004635 335.3904 240.5348  1.00250551 35285"
      },
      "geometry": {
        "type": "Point",
        "coordinates": [
          58.45375573503083,
          -3.2515729857043936
        ]
      }
    },
    {
      "type": "Feature",
      "properties": {
        "norad_id": 41549,
        "name": "GSAT0211 (GALILEO 14)",
        "group": "gnss",
        "lat": -44.78694176235447,
        "lon": -176.83867328298777,
        "alt_km": 23224.124359219586,
        "timestamp": "2025-12-11T13:55:02.407473+00:00",
        "meta_object_name": "GSAT0211 (GALILEO 14)",
        "meta_object_id": "2016-030A",
        "meta_epoch": "2025-12-07T13:40:58.264320",
        "meta_mean_motion": 1.70472997,
        "meta_eccentricity": 0.00040128,
        "meta_inclination": 55.154,
        "meta_ra_of_asc_node": 226.9659,
        "meta_arg_of_pericenter": 14.4678,
        "meta_mean_anomaly": 345.6377,
        "meta_ephemeris_type": 0,
        "meta_classification_type": "U",
        "meta_norad_cat_id": 41549,
        "meta_element_set_no": 999,
        "meta_rev_at_epoch": 5940,
        "meta_bstar": 0,
        "meta_mean_motion_dot": 2.3e-07,
        "meta_mean_motion_ddot": 0,
        "tle_line1": "1 41549U 16030A   25341.57011880  .00000023  00000+0  00000+0 0  9991",
        "tle_line2": "2 41549  55.1540 226.9659 0004012  14.4678 345.6377  1.70472997 59400"
      },
      "geometry": {
        "type": "Point",
        "coordinates": [
          -176.83867328298777,
          -44.78694176235447
        ]
      }
    },
    {
      "type": "Feature",
      "properties": {
        "norad_id": 41550,
        "name": "GSAT0210 (GALILEO 13)",
        "group": "gnss",
        "lat": 29.645462904122745,
        "lon": 23.522861905171368,
        "alt_km": 23219.282600167833,
        "timestamp": "2025-12-11T13:55:02.407485+00:00",
        "meta_object_name": "GSAT0210 (GALILEO 13)",
        "meta_object_id": "2016-030B",
        "meta_epoch": "2025-12-10T18:15:00.862560",
        "meta_mean_motion": 1.7047362,
        "meta_eccentricity": 0.00012729,
        "meta_inclination": 55.1522,
        "meta_ra_of_asc_node": 226.8761,
        "meta_arg_of_pericenter": 243.214,
        "meta_mean_anomaly": 116.853,
        "meta_ephemeris_type": 0,
        "meta_classification_type": "U",
        "meta_norad_cat_id": 41550,
        "meta_element_set_no": 999,
        "meta_rev_at_epoch": 5945,
        "meta_bstar": 0,
        "meta_mean_motion_dot": 9e-08,
        "meta_mean_motion_ddot": 0,
        "tle_line1": "1 41550U 16030B   25344.76042665  .00000009  00000+0  00000+0 0  9996",
        "tle_line2": "2 41550  55.1522 226.8761 0001272 243.2140 116.8530  1.70473620 59454"
      },
      "geometry": {
        "type": "Point",
        "coordinates": [
          23.522861905171368,
          29.645462904122745
        ]
      }
    },
    {
      "type": "Feature",
      "properties": {
        "norad_id": 41586,
        "name": "BEIDOU-2 G7 (C03)",
        "group": "gnss",
        "lat": -0.8084172699467586,
        "lon": 39.72164727497239,
        "alt_km": 35771.03134415503,
        "timestamp": "2025-12-11T13:55:02.407498+00:00",
        "meta_object_name": "BEIDOU-2 G7 (C03)",
        "meta_object_id": "2016-037A",
        "meta_epoch": "2025-12-11T02:03:05.631840",
        "meta_mean_motion": 1.00267887,
        "meta_eccentricity": 0.00043864,
        "meta_inclination": 1.7534,
        "meta_ra_of_asc_node": 67.7301,
        "meta_arg_of_pericenter": 0.3231,
        "meta_mean_anomaly": 153.2176,
        "meta_ephemeris_type": 0,
        "meta_classification_type": "U",
        "meta_norad_cat_id": 41586,
        "meta_element_set_no": 999,
        "meta_rev_at_epoch": 500,
        "meta_bstar": 0,
        "meta_mean_motion_dot": -3.47e-06,
        "meta_mean_motion_ddot": 0,
        "tle_line1": "1 41586U 16037A   25345.08548185 -.00000347  00000+0  00000+0 0  9992",
        "tle_line2": "2 41586   1.7534  67.7301 0004386   0.3231 153.2176  1.00267887  5009"
      },
      "geometry": {
        "type": "Point",
        "coordinates": [
          39.72164727497239,
          -0.8084172699467586
        ]
      }
    }
  ]
}